EWS-G2 (GOES 15)        
1 36411U 10008A   25124.20113984  .00000026  00000+0  00000+0 0  9992
2 36411   0.2163  85.8718 0001779 183.0012  87.4117  1.00275674 55533
GOES 16                 
1 41866U 16071A   25123.86693929 -.00000187  00000+0  00000+0 0  9990
2 41866   0.0522 272.4746 0000776 199.6805 334.8358  1.00128151 30990
GOES 17                 
1 43226U 18022A   25123.86346407 -.00000103  00000+0  00000+0 0  9994
2 43226   0.0068 307.1588 0002239 145.6961 335.6015  1.00270581 26312
GOES 18                 
1 51850U 22021A   25124.14268338  .00000086  00000+0  00000+0 0  9997
2 51850   0.0020 216.3763 0000162 236.6814  43.5861  1.00273036 11708
GOES 19                 
1 60133U 24119A   25124.09003113 -.00000259  00000+0  00000+0 0  9996
2 60133   0.0452  86.5502 0000140 326.1083 126.7829  1.00271034  3208
