[
  {
    "OBJECT_NAME": "EWS-G2 (GOES 15)",
    "OBJECT_ID": "2010-008A",
    "EPOCH": "2025-05-04T04:49:38.482176",
    "MEAN_MOTION": 1.00275674,
    "ECCENTRICITY": 0.0001779,
    "INCLINATION": 0.2163,
    "RA_OF_ASC_NODE": 85.8718,
    "ARG_OF_PERICENTER": 183.0012,
    "MEAN_ANOMALY": 87.4117,
    "EPHEMERIS_TYPE": 0,
    "CLASSIFICATION_TYPE": "U",
    "NORAD_CAT_ID": 36411,
    "ELEMENT_SET_NO": 999,
    "REV_AT_EPOCH": 5553,
    "BSTAR": 0,
    "MEAN_MOTION_DOT": 2.6e-07,
    "MEAN_MOTION_DDOT": 0
  },
  {
    "OBJECT_NAME": "GOES 16",
    "OBJECT_ID": "2016-071A",
    "EPOCH": "2025-05-03T20:48:23.554656",
    "MEAN_MOTION": 1.00128151,
    "ECCENTRICITY": 7.76e-05,
    "INCLINATION": 0.0522,
    "RA_OF_ASC_NODE": 272.4746,
    "ARG_OF_PERICENTER": 199.6805,
    "MEAN_ANOMALY": 334.8358,
    "EPHEMERIS_TYPE": 0,
    "CLASSIFICATION_TYPE": "U",
    "NORAD_CAT_ID": 41866,
    "ELEMENT_SET_NO": 999,
    "REV_AT_EPOCH": 3099,
    "BSTAR": 0,
    "MEAN_MOTION_DOT": -1.87e-06,
    "MEAN_MOTION_DDOT": 0
  },
  {
    "OBJECT_NAME": "GOES 17",
    "OBJECT_ID": "2018-022A",
    "EPOCH": "2025-05-03T20:43:23.295648",
    "MEAN_MOTION": 1.00270581,
    "ECCENTRICITY": 0.0002239,
    "INCLINATION": 0.0068,
    "RA_OF_ASC_NODE": 307.1588,
    "ARG_OF_PERICENTER": 145.6961,
    "MEAN_ANOMALY": 335.6015,
    "EPHEMERIS_TYPE": 0,
    "CLASSIFICATION_TYPE": "U",
    "NORAD_CAT_ID": 43226,
    "ELEMENT_SET_NO": 999,
    "REV_AT_EPOCH": 2631,
    "BSTAR": 0,
    "MEAN_MOTION_DOT": -1.03e-06,
    "MEAN_MOTION_DDOT": 0
  },
  {
    "OBJECT_NAME": "GOES 18",
    "OBJECT_ID": "2022-021A",
    "EPOCH": "2025-05-04T03:25:27.844032",
    "MEAN_MOTION": 1.00273036,
    "ECCENTRICITY": 1.62e-05,
    "INCLINATION": 0.002,
    "RA_OF_ASC_NODE": 216.3763,
    "ARG_OF_PERICENTER": 236.6814,
    "MEAN_ANOMALY": 43.5861,
    "EPHEMERIS_TYPE": 0,
    "CLASSIFICATION_TYPE": "U",
    "NORAD_CAT_ID": 51850,
    "ELEMENT_SET_NO": 999,
    "REV_AT_EPOCH": 1170,
    "BSTAR": 0,
    "MEAN_MOTION_DOT": 8.6e-07,
    "MEAN_MOTION_DDOT": 0
  },
  {
    "OBJECT_NAME": "GOES 19",
    "OBJECT_ID": "2024-119A",
    "EPOCH": "2025-05-04T02:09:38.689632",
    "MEAN_MOTION": 1.00271034,
    "ECCENTRICITY": 1.4e-05,
    "INCLINATION": 0.0452,
    "RA_OF_ASC_NODE": 86.5502,
    "ARG_OF_PERICENTER": 326.1083,
    "MEAN_ANOMALY": 126.7829,
    "EPHEMERIS_TYPE": 0,
    "CLASSIFICATION_TYPE": "U",
    "NORAD_CAT_ID": 60133,
    "ELEMENT_SET_NO": 999,
    "REV_AT_EPOCH": 320,
    "BSTAR": 0,
    "MEAN_MOTION_DOT": -2.59e-06,
    "MEAN_MOTION_DDOT": 0
  }
]